[{"OBJECT_NAME":"STARLINK-36700","OBJECT_ID":"2026-022Q","EPOCH":"2026-03-09T15:28:52.353696","MEAN_MOTION":15.75231603,"ECCENTRICITY":0.0002606,"INCLINATION":97.2848,"RA_OF_ASC_NODE":102.6469,"ARG_OF_PERICENTER":47.074,"MEAN_ANOMALY":313.0743,"EPHEMERIS_TYPE":0,"CLASSIFICATION_TYPE":"U","NORAD_CAT_ID":67662,"ELEMENT_SET_NO":999,"REV_AT_EPOCH":554,"BSTAR":0.00058718,"MEAN_MOTION_DOT":0.00088534,"MEAN_MOTION_DDOT":0},{"OBJECT_NAME":"GFO","OBJECT_ID":"1998-007A","EPOCH":"2026-03-09T11:35:22.629120","MEAN_MOTION":15.65801864,"ECCENTRICITY":0.00488061,"INCLINATION":108.0178,"RA_OF_ASC_NODE":266.8886,"ARG_OF_PERICENTER":194.2539,"MEAN_ANOMALY":165.7295,"EPHEMERIS_TYPE":0,"CLASSIFICATION_TYPE":"U","NORAD_CAT_ID":25157,"ELEMENT_SET_NO":999,"REV_AT_EPOCH":51081,"BSTAR":0.00066525992,"MEAN_MOTION_DOT":0.00072245,"MEAN_MOTION_DDOT":0}]
